QIANFAN-33              
1 61566U 24185Q   25239.85481735  .00000354  00000+0  24713-3 0  9997
2 61566  88.9749  90.7416 0005300 313.3319  46.7415 13.96419443 54245
QIANFAN-34              
1 61567U 24185R   25239.90153718  .00000300  00000+0  18726-3 0  9999
2 61567  88.9728  90.4411 0004719 323.4430  36.6428 14.02172786 54385
QIANFAN-35              
1 61568U 24185S   25239.89338558  .00000808  00000+0  32209-3 0  9990
2 61568  88.9752  89.4375 0004514 283.6626  76.4066 14.27687221 54930
QIANFAN-36              
1 61569U 24185T   25239.85898062  .00000090  00000+0  11245-3 0  9998
2 61569  88.9738  92.1946 0006380  10.7239 349.4050 13.55548618 53449
QIANFAN-37              
1 62238U 24232B   25239.89479890  .00000059  00000+0  73516-4 0  9998
2 62238  88.9937  52.1191 0002477  81.2791 278.8641 13.50960780 84742
QIANFAN-38              
1 62239U 24232C   25239.91968968  .00000064  00000+0  80823-4 0  9996
2 62239  88.9944  52.0251 0015860 138.5770 221.6587 13.50964879 84805
QIANFAN-39              
1 62240U 24232D   25239.92216853  .00000202  00000+0  79566-4 0  9994
2 62240  88.9945  49.5258 0018306  71.5665 288.7516 14.25236585 86170
QIANFAN-40              
1 62241U 24232E   25239.87851546  .00000050  00000+0  58261-4 0  9993
2 62241  88.9972  51.5837 0014690 145.6503 214.5601 13.50961400 85161
